SENTINEL-6              
1 46984U 20086A   23346.84939134 -.00000032  00000+0  12385-3 0  9993
2 46984  66.0409 240.3712 0007709 269.6556  90.3576 12.80928761142965
